{"CR":{"SJ":[{"city":"San José, Carmen","zip":"10101"},{"city":"San José, Merced","zip":"10102"},{"city":"San José, Hospital","zip":"10103"},{"city":"San José, Catedral","zip":"10104"},{"city":"San José, Zapote","zip":"10105"},{"city":"San José, San Francisco de Dos Ríos","zip":"10106"},{"city":"San José, Uruca","zip":"10107"},{"city":"San José, Mata Redonda","zip":"10108"},{"city":"San José, Pavas","zip":"10109"},{"city":"San José, Hatillo","zip":"10110"},{"city":"San José, San Sebastián","zip":"10111"},{"city":"Escazú, Escazú","zip":"10201"},{"city":"Escazú, San Antonio","zip":"10202"},{"city":"Escazú, San Rafael","zip":"10203"},{"city":"Desamparados, Desamparados","zip":"10301"},{"city":"Desamparados, San Miguel","zip":"10302"},{"city":"Desamparados, San Juan de Dios","zip":"10303"},{"city":"Desamparados, San Rafael Arriba","zip":"10304"},{"city":"Desamparados, San Antonio","zip":"10305"},{"city":"Desamparados, Frailes","zip":"10306"},{"city":"Desamparados, Patarra","zip":"10307"},{"city":"Desamparados, San Cristobal","zip":"10308"},{"city":"Desamparados, Rosario","zip":"10309"},{"city":"Desamparados, Damas","zip":"10310"},{"city":"Desamparados, San Rafael Abajo","zip":"10311"},{"city":"Desamparados, Gravilias","zip":"10312"},{"city":"Desamparados, Los Guido","zip":"10313"},{"city":"Puriscal, Santiago","zip":"10401"},{"city":"Puriscal, Mercedes Sur","zip":"10402"},{"city":"Puriscal, Barbacoas","zip":"10403"},{"city":"Puriscal, Grifo Alto","zip":"10404"},{"city":"Puriscal, San Rafael","zip":"10405"},{"city":"Puriscal, Candelaria","zip":"10406"},{"city":"Puriscal, Desamparaditos","zip":"10407"},{"city":"Puriscal, San Antonio","zip":"10408"},{"city":"Puriscal, Chires","zip":"10409"},{"city":"Tarrazu, San Marcos","zip":"10501"},{"city":"Tarrazu, San Lorenzo","zip":"10502"},{"city":"Tarrazu, San Carlos","zip":"10503"},{"city":"Aserrí, Aserrí","zip":"10601"},{"city":"Aserrí, Tarbaca","zip":"10602"},{"city":"Aserrí, Vuelta de Jorco","zip":"10603"},{"city":"Aserrí, San Gabriel","zip":"10604"},{"city":"Aserrí, Legua","zip":"10605"},{"city":"Aserrí, Monterrey","zip":"10606"},{"city":"Aserrí, Salitrillos","zip":"10607"},{"city":"Mora, Colón","zip":"10701"},{"city":"Mora, Guayabo","zip":"10702"},{"city":"Mora, Tabarcia","zip":"10703"},{"city":"Mora, Piedras Negras","zip":"10704"},{"city":"Mora, Picagres","zip":"10705"},{"city":"Goicoechea, Guadalupe","zip":"10801"},{"city":"Goicoechea, San Francisco","zip":"10802"},{"city":"Goicoechea, Calle Blancos","zip":"10803"},{"city":"Goicoechea, Mata de Plátano","zip":"10804"},{"city":"Goicoechea, Ipís","zip":"10805"},{"city":"Goicoechea, Rancho Redondo","zip":"10806"},{"city":"Goicoechea, Purral","zip":"10807"},{"city":"Santa Ana, Santa Ana","zip":"10901"},{"city":"Santa Ana, Salitral","zip":"10902"},{"city":"Santa Ana, Pozos","zip":"10903"},{"city":"Santa Ana, Uruca","zip":"10904"},{"city":"Santa Ana, Piedades","zip":"10905"},{"city":"Santa Ana, Brasil","zip":"10906"},{"city":"Alajuelita, Alajuelita","zip":"11001"},{"city":"Alajuelita, San Josecito","zip":"11002"},{"city":"Alajuelita, San Antonio","zip":"11003"},{"city":"Alajuelita, Concepción","zip":"11004"},{"city":"Alajuelita, San Felipe","zip":"11005"},{"city":"Vazquez de Coronado, San Isidro","zip":"11101"},{"city":"Vazquez de Coronado, San Rafael","zip":"11102"},{"city":"Vazquez de Coronado, Dulce Nombre de Jesús","zip":"11103"},{"city":"Vazquez de Coronado, Patalillo","zip":"11104"},{"city":"Vazquez de Coronado, Cascajal","zip":"11105"},{"city":"Acosta, San Ignacio de Acosta","zip":"11201"},{"city":"Acosta, Guaitil","zip":"11202"},{"city":"Acosta, Palmichal","zip":"11203"},{"city":"Acosta, Cangrejal","zip":"11204"},{"city":"Acosta, Sabanillas","zip":"11205"},{"city":"Tibás, San Juan","zip":"11301"},{"city":"Tibás, Cinco esquinas","zip":"11302"},{"city":"Tibás, Anselmo Llorente","zip":"11303"},{"city":"Tibás, Leon XIII","zip":"11304"},{"city":"Tibás, Colima","zip":"11305"},{"city":"Moravia, San Vicente","zip":"11401"},{"city":"Moravia, San Jerónimo","zip":"11402"},{"city":"Moravia, Trinidad","zip":"11403"},{"city":"Montes de Oca, San Pedro","zip":"11501"},{"city":"Montes de Oca, Sabanilla","zip":"11502"},{"city":"Montes de Oca, Mercedes","zip":"11503"},{"city":"Montes de Oca, San Rafael","zip":"11504"},{"city":"Turrubares, San Pablo","zip":"11601"},{"city":"Turrubares, San Pedro","zip":"11602"},{"city":"Turrubares, San Juan de Mata","zip":"11603"},{"city":"Turrubares, San Luis","zip":"11604"},{"city":"Turrubares, Carara","zip":"11605"},{"city":"Dota, Santa María","zip":"11701"},{"city":"Dota, Jardín","zip":"11702"},{"city":"Dota, Copey","zip":"11703"},{"city":"Curridabat, Curridabat","zip":"11801"},{"city":"Curridabat, Granadilla","zip":"11802"},{"city":"Curridabat, Sánchez","zip":"11803"},{"city":"Curridabat, Tirrases","zip":"11804"},{"city":"Pérez Zeledón, San Isidro del General","zip":"11901"},{"city":"Pérez Zeledón, General","zip":"11902"},{"city":"Pérez Zeledón, Daniel Flores","zip":"11903"},{"city":"Pérez Zeledón, Rivas","zip":"11904"},{"city":"Pérez Zeledón, San Pedro","zip":"11905"},{"city":"Pérez Zeledón, Platanares","zip":"11906"},{"city":"Pérez Zeledón, Pejibaye","zip":"11907"},{"city":"Pérez Zeledón, Cajón","zip":"11908"},{"city":"Pérez Zeledón, Barú","zip":"11909"},{"city":"Pérez Zeledón, Río Nuevo","zip":"11910"},{"city":"Pérez Zeledón, Páramo","zip":"11911"},{"city":"León Cortes, San Pablo","zip":"12001"},{"city":"León Cortes, San Andrés","zip":"12002"},{"city":"León Cortes, Llano Bonito","zip":"12003"},{"city":"León Cortes, San Isidro","zip":"12004"},{"city":"León Cortes, Santa Cruz","zip":"12005"},{"city":"León Cortes, San Antonio","zip":"12006"}],"AL":[{"city":"Alajuela, Alajuela","zip":"20101"},{"city":"Alajuela, San José","zip":"20102"},{"city":"Alajuela, Carrizal","zip":"20103"},{"city":"Alajuela, San Antonio","zip":"20104"},{"city":"Alajuela, Guácima","zip":"20105"},{"city":"Alajuela, San Isidro","zip":"20106"},{"city":"Alajuela, Sabanilla","zip":"20107"},{"city":"Alajuela, San Rafael","zip":"20108"},{"city":"Alajuela, Río Segundo","zip":"20109"},{"city":"Alajuela, Desamparados","zip":"20110"},{"city":"Alajuela, Turrúcares","zip":"20111"},{"city":"Alajuela, Tambor","zip":"20112"},{"city":"Alajuela, Garita","zip":"20113"},{"city":"Alajuela, Sarapiquí","zip":"20114"},{"city":"San Ramon, San Ramón","zip":"20201"},{"city":"San Ramon, Santiago","zip":"20202"},{"city":"San Ramon, San Juan","zip":"20203"},{"city":"San Ramon, Piedades Norte","zip":"20204"},{"city":"San Ramon, Piedades Sur","zip":"20205"},{"city":"San Ramon, San Rafael","zip":"20206"},{"city":"San Ramon, San Isidro","zip":"20207"},{"city":"San Ramon, Ángeles","zip":"20208"},{"city":"San Ramon, Alfaro","zip":"20209"},{"city":"San Ramon, Volio","zip":"20210"},{"city":"San Ramon, Concepción","zip":"20211"},{"city":"San Ramon, Zapotal","zip":"20212"},{"city":"San Ramon, Peñas Blancas","zip":"20213"},{"city":"Grecia, Grecia","zip":"20301"},{"city":"Grecia, San Isidro","zip":"20302"},{"city":"Grecia, San Jose","zip":"20303"},{"city":"Grecia, San Roque","zip":"20304"},{"city":"Grecia, Tacares","zip":"20305"},{"city":"Grecia, Río Cuarto","zip":"20306"},{"city":"Grecia, Puente de Piedra","zip":"20307"},{"city":"Grecia, Bolivar","zip":"20308"},{"city":"San Mateo, San Mateo","zip":"20401"},{"city":"San Mateo, Desmonte","zip":"20402"},{"city":"San Mateo, Jesús María","zip":"20403"},{"city":"Atenas, Atenas","zip":"20501"},{"city":"Atenas, Jesús","zip":"20502"},{"city":"Atenas, Mercedes","zip":"20503"},{"city":"Atenas, San Isidro","zip":"20504"},{"city":"Atenas, Concepción","zip":"20505"},{"city":"Atenas, San José","zip":"20506"},{"city":"Atenas, Santa Eulalia","zip":"20507"},{"city":"Atenas, Escobal","zip":"20508"},{"city":"Naranjo, Naranjo","zip":"20601"},{"city":"Naranjo, San Miguel","zip":"20602"},{"city":"Naranjo, San José","zip":"20603"},{"city":"Naranjo, Cirrí Sur","zip":"20604"},{"city":"Naranjo, San Jerónimo","zip":"20605"},{"city":"Naranjo, San Juan","zip":"20606"},{"city":"Naranjo, Rosario","zip":"20607"},{"city":"Palmares, Palmares","zip":"20701"},{"city":"Palmares, Zaragoza","zip":"20702"},{"city":"Palmares, Buenos Aires","zip":"20703"},{"city":"Palmares, Santiago","zip":"20704"},{"city":"Palmares, Candelaria","zip":"20705"},{"city":"Palmares, Esquipulas","zip":"20706"},{"city":"Palmares, Granja","zip":"20707"},{"city":"Poás, San Pedro","zip":"20801"},{"city":"Poás, San Juan","zip":"20802"},{"city":"Poás, San Rafael","zip":"20803"},{"city":"Poás, Carrillos","zip":"20804"},{"city":"Poás, Sabana Redonda","zip":"20805"},{"city":"Orotina, Orotina","zip":"20901"},{"city":"Orotina, Mastate","zip":"20902"},{"city":"Orotina, Hacienda Vieja","zip":"20903"},{"city":"Orotina, Coyolar","zip":"20904"},{"city":"Orotina, Ceiba","zip":"20905"},{"city":"San Carlos, Quesada","zip":"21001"},{"city":"San Carlos, Florencia","zip":"21002"},{"city":"San Carlos, Buenavista","zip":"21003"},{"city":"San Carlos, Aguas Zarcas","zip":"21004"},{"city":"San Carlos, Venecia","zip":"21005"},{"city":"San Carlos, Pital","zip":"21006"},{"city":"San Carlos, Fortuna","zip":"21007"},{"city":"San Carlos, Tigra","zip":"21008"},{"city":"San Carlos, Palmera","zip":"21009"},{"city":"San Carlos, Venado","zip":"21010"},{"city":"San Carlos, Cutris","zip":"21011"},{"city":"San Carlos, Monterrey","zip":"21012"},{"city":"San Carlos, Pocosol","zip":"21013"},{"city":"Alfaro Ruiz, Zarcero","zip":"21101"},{"city":"Alfaro Ruiz, Laguna","zip":"21102"},{"city":"Alfaro Ruiz, Tapezco","zip":"21103"},{"city":"Alfaro Ruiz, Guadalupe","zip":"21104"},{"city":"Alfaro Ruiz, Palmira","zip":"21105"},{"city":"Alfaro Ruiz, Zapote","zip":"21106"},{"city":"Alfaro Ruiz, Brisas","zip":"21107"},{"city":"Valverde Vega, Sarchi Norte","zip":"21201"},{"city":"Valverde Vega, Sarchi Sur","zip":"21202"},{"city":"Valverde Vega, Toro Amarillo","zip":"21203"},{"city":"Valverde Vega, San Pedro","zip":"21204"},{"city":"Valverde Vega, Rodriguez","zip":"21205"},{"city":"Upala, Upala","zip":"21301"},{"city":"Upala, Aguas Claras","zip":"21302"},{"city":"Upala, San Jose (Pizote)","zip":"21303"},{"city":"Upala, Bijagua","zip":"21304"},{"city":"Upala, Delicias","zip":"21305"},{"city":"Upala, Dos Rios","zip":"21306"},{"city":"Upala, Yoliyllal","zip":"21307"},{"city":"Los Chiles, Los Chiles","zip":"21401"},{"city":"Los Chiles, Caño Negro","zip":"21402"},{"city":"Los Chiles, El Amparo","zip":"21403"},{"city":"Los Chiles, San Jorge","zip":"21404"},{"city":"Guatuso, San Rafael","zip":"21501"},{"city":"Guatuso, Buenavista","zip":"21502"},{"city":"Guatuso, Cote","zip":"21503"}],"CG":[{"city":"Cartago, Oriental","zip":"30101"},{"city":"Cartago, Occidental","zip":"30102"},{"city":"Cartago, Carmen","zip":"30103"},{"city":"Cartago, San Nicolas","zip":"30104"},{"city":"Cartago, Aguacaliente (San Francisco)","zip":"30105"},{"city":"Cartago, Guadalupe (Arenilla)","zip":"30106"},{"city":"Cartago, Corralillo","zip":"30107"},{"city":"Cartago, Tierra Blanca","zip":"30108"},{"city":"Cartago, Dulce Nombre","zip":"30109"},{"city":"Cartago, Llano Grande","zip":"30110"},{"city":"Cartago, Quebradilla","zip":"30111"},{"city":"Paraíso, Paraiso","zip":"30201"},{"city":"Paraíso, Santiago","zip":"30202"},{"city":"Paraíso, Orosi","zip":"30203"},{"city":"Paraíso, Cachi","zip":"30204"},{"city":"Paraíso, Llanos de Santa Lucia","zip":"30205"},{"city":"La Unión, Tres Rios","zip":"30301"},{"city":"La Unión, San Diego","zip":"30302"},{"city":"La Unión, San Juan","zip":"30303"},{"city":"La Unión, San Rafael","zip":"30304"},{"city":"La Unión, Concepcion","zip":"30305"},{"city":"La Unión, Dulce Nombre","zip":"30306"},{"city":"La Unión, San Ramon","zip":"30307"},{"city":"La Unión, Rio Azul","zip":"30308"},{"city":"Jiménez, Juan Viñas","zip":"30401"},{"city":"Jiménez, Tucurrique","zip":"30402"},{"city":"Jiménez, Pejibaye","zip":"30403"},{"city":"Turrialba, Turrialba","zip":"30501"},{"city":"Turrialba, La Suiza","zip":"30502"},{"city":"Turrialba, Peralta","zip":"30503"},{"city":"Turrialba, Santa Cruz","zip":"30504"},{"city":"Turrialba, Santa Teresita","zip":"30505"},{"city":"Turrialba, Pavones","zip":"30506"},{"city":"Turrialba, Tuis","zip":"30507"},{"city":"Turrialba, Tayutic","zip":"30508"},{"city":"Turrialba, Santa Rosa","zip":"30509"},{"city":"Turrialba, Tres Equis","zip":"30510"},{"city":"Turrialba, La Isabel","zip":"30511"},{"city":"Turrialba, Chirripo","zip":"30512"},{"city":"Alvarado, Pacayas","zip":"30601"},{"city":"Alvarado, Cervantes","zip":"30602"},{"city":"Alvarado, Capellades","zip":"30603"},{"city":"Oreamuno, San Rafael","zip":"30701"},{"city":"Oreamuno, Cote","zip":"30702"},{"city":"Oreamuno, Potrero Cerrado","zip":"30703"},{"city":"Oreamuno, Cipreses","zip":"30704"},{"city":"Oreamuno, Santa Rosa","zip":"30705"},{"city":"El Guarco, Tejar","zip":"30801"},{"city":"El Guarco, San Isidro","zip":"30802"},{"city":"El Guarco, Tobosi","zip":"30803"},{"city":"El Guarco, Patio de Agua","zip":"30804"}],"HD":[{"city":"Heredia, Heredia","zip":"40101"},{"city":"Heredia, Mercedes","zip":"40102"},{"city":"Heredia, San Francisco","zip":"40103"},{"city":"Heredia, Ulloa","zip":"40104"},{"city":"Heredia, Varablanca","zip":"40105"},{"city":"Barva, Barva","zip":"40201"},{"city":"Barva, San Pedro","zip":"40202"},{"city":"Barva, San Pablo","zip":"40203"},{"city":"Barva, San Roque","zip":"40204"},{"city":"Barva, Santa Lucia","zip":"40205"},{"city":"Barva, San Jose de la Montaña","zip":"40206"},{"city":"Santo Domingo, Santo Domingo","zip":"40301"},{"city":"Santo Domingo, San Vicente","zip":"40302"},{"city":"Santo Domingo, San Miguel","zip":"40303"},{"city":"Santo Domingo, Paracito","zip":"40304"},{"city":"Santo Domingo, Santo Tomas","zip":"40305"},{"city":"Santo Domingo, Santa Rosa","zip":"40306"},{"city":"Santo Domingo, Tures","zip":"40307"},{"city":"Santo Domingo, Para","zip":"40308"},{"city":"Santa Bárbara, Santa Barbara","zip":"40401"},{"city":"Santa Bárbara, San Pedro","zip":"40402"},{"city":"Santa Bárbara, San Juan","zip":"40403"},{"city":"Santa Bárbara, Jesus","zip":"40404"},{"city":"Santa Bárbara, Santo Domingo","zip":"40405"},{"city":"Santa Bárbara, Puraba","zip":"40406"},{"city":"San Rafael, San Rafael","zip":"40501"},{"city":"San Rafael, San Josecito","zip":"40502"},{"city":"San Rafael, Santiago","zip":"40503"},{"city":"San Rafael, angeles","zip":"40504"},{"city":"San Rafael, Concepcion","zip":"40505"},{"city":"San Isidro, San Isidro","zip":"40601"},{"city":"San Isidro, San Jose","zip":"40602"},{"city":"San Isidro, Concepcion","zip":"40603"},{"city":"San Isidro, San Francisco","zip":"40604"},{"city":"Belén, San Antonio","zip":"40701"},{"city":"Belén, Ribera","zip":"40702"},{"city":"Belén, Asuncion","zip":"40703"},{"city":"San Joaquín de Flores, San Joaquin de Flores","zip":"40801"},{"city":"San Joaquín de Flores, Barrantes","zip":"40802"},{"city":"San Joaquín de Flores, Llorente","zip":"40803"},{"city":"San Pablo, San Pablo","zip":"40901"},{"city":"Sarapiquí, Puerto Viejo","zip":"41001"},{"city":"Sarapiquí, La Virgen","zip":"41002"},{"city":"Sarapiquí, Horquetas","zip":"41003"},{"city":"Sarapiquí, Llanuras del Gaspar","zip":"41004"},{"city":"Sarapiquí, Cureña","zip":"41005"}],"GT":[{"city":"Liberia, Liberia","zip":"50101"},{"city":"Liberia, Cañas Dulces","zip":"50102"},{"city":"Liberia, Mayorga","zip":"50103"},{"city":"Liberia, Nacascolo","zip":"50104"},{"city":"Liberia, Curubande","zip":"50105"},{"city":"Nicoya, Nicoya","zip":"50201"},{"city":"Nicoya, Mansion","zip":"50202"},{"city":"Nicoya, San Antonio","zip":"50203"},{"city":"Nicoya, Quebrada Honda","zip":"50204"},{"city":"Nicoya, Samara","zip":"50205"},{"city":"Nicoya, Nosara","zip":"50206"},{"city":"Nicoya, Belen de Nosarita","zip":"50207"},{"city":"Santa Cruz, Santa Cruz","zip":"50301"},{"city":"Santa Cruz, Bolson","zip":"50302"},{"city":"Santa Cruz, Veintisiete de Abril","zip":"50303"},{"city":"Santa Cruz, Tempate","zip":"50304"},{"city":"Santa Cruz, Cartagena","zip":"50305"},{"city":"Santa Cruz, Cuajiniquil","zip":"50306"},{"city":"Santa Cruz, Diria","zip":"50307"},{"city":"Santa Cruz, Cabo Velas","zip":"50308"},{"city":"Santa Cruz, Tamarindo","zip":"50309"},{"city":"Bagaces, Bagaces","zip":"50401"},{"city":"Bagaces, Fortuna","zip":"50402"},{"city":"Bagaces, Mogote","zip":"50403"},{"city":"Bagaces, Rio Naranjo","zip":"50404"},{"city":"Carrillo, Filadelfia","zip":"50501"},{"city":"Carrillo, Palmira","zip":"50502"},{"city":"Carrillo, Sardinal","zip":"50503"},{"city":"Carrillo, Belen","zip":"50504"},{"city":"Cañas, Cañas","zip":"50601"},{"city":"Cañas, Palmira","zip":"50602"},{"city":"Cañas, San Miguel","zip":"50603"},{"city":"Cañas, Bebedero","zip":"50604"},{"city":"Cañas, Porozal","zip":"50605"},{"city":"Abangares, Juntas","zip":"50701"},{"city":"Abangares, Sierra","zip":"50702"},{"city":"Abangares, San Juan","zip":"50703"},{"city":"Abangares, Colorado","zip":"50704"},{"city":"Tilarán, Tilaran","zip":"50801"},{"city":"Tilarán, Quebrada Grande","zip":"50802"},{"city":"Tilarán, Tronadora","zip":"50803"},{"city":"Tilarán, Santa Rosa","zip":"50804"},{"city":"Tilarán, Libano","zip":"50805"},{"city":"Tilarán, Tierras Morenas","zip":"50806"},{"city":"Tilarán, Arenal","zip":"50807"},{"city":"Nandayure, Carmona","zip":"50901"},{"city":"Nandayure, Santa Rita","zip":"50902"},{"city":"Nandayure, Zapotal","zip":"50903"},{"city":"Nandayure, San Pablo","zip":"50904"},{"city":"Nandayure, Porvenir","zip":"50905"},{"city":"Nandayure, Bejuco","zip":"50906"},{"city":"La Cruz, La Cruz","zip":"51001"},{"city":"La Cruz, Santa Cecilia","zip":"51002"},{"city":"La Cruz, Garita","zip":"51003"},{"city":"La Cruz, Santa Elena","zip":"51004"},{"city":"Hojancha, Hojancha","zip":"51101"},{"city":"Hojancha, Monte Romo","zip":"51102"},{"city":"Hojancha, Puerto Carrillo","zip":"51103"},{"city":"Hojancha, Huacas","zip":"51104"}],"PT":[{"city":"Puntarenas, Puntarenas","zip":"60101"},{"city":"Puntarenas, Pitahaya","zip":"60102"},{"city":"Puntarenas, Chomes","zip":"60103"},{"city":"Puntarenas, Lepanto","zip":"60104"},{"city":"Puntarenas, Paquera","zip":"60105"},{"city":"Puntarenas, Manzanillo","zip":"60106"},{"city":"Puntarenas, Guacimal","zip":"60107"},{"city":"Puntarenas, Barranca","zip":"60108"},{"city":"Puntarenas, Monte Verde","zip":"60109"},{"city":"Puntarenas, Isla del Coco","zip":"60110"},{"city":"Puntarenas, Cobano","zip":"60111"},{"city":"Puntarenas, Chacarita","zip":"60112"},{"city":"Puntarenas, Chira","zip":"60113"},{"city":"Puntarenas, Acapulco","zip":"60114"},{"city":"Puntarenas, El Roble","zip":"60115"},{"city":"Puntarenas, Arancibia","zip":"60116"},{"city":"Esparza, Espiritu Santo","zip":"60201"},{"city":"Esparza, San Juan Grande","zip":"60202"},{"city":"Esparza, Macacona","zip":"60203"},{"city":"Esparza, San Rafael","zip":"60204"},{"city":"Esparza, San Jeronimo","zip":"60205"},{"city":"Buenos Aires, Buenos Aires","zip":"60301"},{"city":"Buenos Aires, Volcan","zip":"60302"},{"city":"Buenos Aires, Potrero Grande","zip":"60303"},{"city":"Buenos Aires, Boruca","zip":"60304"},{"city":"Buenos Aires, Pilas","zip":"60305"},{"city":"Buenos Aires, Colinas","zip":"60306"},{"city":"Buenos Aires, Changena","zip":"60307"},{"city":"Buenos Aires, Briolley","zip":"60308"},{"city":"Buenos Aires, Brunka","zip":"60309"},{"city":"Montes de Oro, Miramar","zip":"60401"},{"city":"Montes de Oro, Union","zip":"60402"},{"city":"Montes de Oro, San Isidro","zip":"60403"},{"city":"Osa, Puerto Cortes","zip":"60501"},{"city":"Osa, Palmar","zip":"60502"},{"city":"Osa, Sierpe","zip":"60503"},{"city":"Osa, Bahia Ballena","zip":"60504"},{"city":"Osa, Piedras Blancas","zip":"60505"},{"city":"Aguirre, Quepos","zip":"60601"},{"city":"Aguirre, Savegre","zip":"60602"},{"city":"Aguirre, Naranjito","zip":"60603"},{"city":"Golfito, Golfito","zip":"60701"},{"city":"Golfito, Puerto Jimenez","zip":"60702"},{"city":"Golfito, Guaycara","zip":"60703"},{"city":"Golfito, Pavon","zip":"60704"},{"city":"Coto Brus, San Vito","zip":"60801"},{"city":"Coto Brus, Sabalito","zip":"60802"},{"city":"Coto Brus, Aguabuena","zip":"60803"},{"city":"Coto Brus, Limoncito","zip":"60804"},{"city":"Coto Brus, Pittier","zip":"60805"},{"city":"Parrita, Parrita","zip":"60901"},{"city":"Corredores, Corredor","zip":"61001"},{"city":"Corredores, La Cuesta","zip":"61002"},{"city":"Corredores, Canoas","zip":"61003"},{"city":"Corredores, Laurel","zip":"61004"},{"city":"Garabito, Jaco","zip":"61101"},{"city":"Garabito, Tarcoles","zip":"61102"}],"LM":[{"city":"Limón, Limon","zip":"70101"},{"city":"Limón, Valle La Estrella","zip":"70102"},{"city":"Limón, Rio Blanco","zip":"70103"},{"city":"Limón, Matama","zip":"70104"},{"city":"Pococí, Guapiles","zip":"70201"},{"city":"Pococí, Jimenez","zip":"70202"},{"city":"Pococí, Rita","zip":"70203"},{"city":"Pococí, Roxana","zip":"70204"},{"city":"Pococí, Cariari","zip":"70205"},{"city":"Pococí, Colorado","zip":"70206"},{"city":"Siquirres, Siquirres","zip":"70301"},{"city":"Siquirres, Pacuarito","zip":"70302"},{"city":"Siquirres, Florida","zip":"70303"},{"city":"Siquirres, Germania","zip":"70304"},{"city":"Siquirres, Cairo","zip":"70305"},{"city":"Siquirres, Alegria","zip":"70306"},{"city":"Talamanca, Bratsi","zip":"70401"},{"city":"Talamanca, Sixaola","zip":"70402"},{"city":"Talamanca, Cahuita","zip":"70403"},{"city":"Talamanca, Telire","zip":"70404"},{"city":"Matina, Matina","zip":"70501"},{"city":"Matina, Battan","zip":"70502"},{"city":"Matina, Carrandi","zip":"70503"},{"city":"Guácimo, Guacimo","zip":"70601"},{"city":"Guácimo, Mercedes","zip":"70602"},{"city":"Guácimo, Pocora","zip":"70603"},{"city":"Guácimo, Rio Jimenez","zip":"70604"},{"city":"Guácimo, Duacari","zip":"70605"}]}}
